*******************************************************************************
 Revised: Dec 04, 2019            Ananke / (Jupiter)                        512

 SATELLITE PHYSICAL PROPERTIES:
  Radius (km)             = 10              Density (g cm^-3)   =              
  Mass (10^20 kg )        =                 Geometric Albedo    =  
                                            V(1,0)              = +12.2 

 SATELLITE ORBITAL DATA:
  Semi-major axis, a (km) = 21200 (10^3)    Orbital period      = 631 d (retro)
  Eccentricity, e         =   0.169         Rotational period   = 
  Inclination, i  (deg)   =  147            Local invar ref. pln= Sun
*******************************************************************************
 
 
*******************************************************************************
Ephemeris / WWW_USER Wed Jun 17 12:36:26 2020 Pasadena, USA      / Horizons
*******************************************************************************
Target body name: Ananke (512)                    {source: jup343_merged}
Center body name: Solar System Barycenter (0)     {source: DE431mx}
Center-site name: BODY CENTER
*******************************************************************************
Start time      : A.D. 2000-Jun-05 00:00:00.0000 TDB
Stop  time      : A.D. 2040-May-26 00:00:00.0000 TDB
Step-size       : 14400 minutes
*******************************************************************************
Center geodetic : 0.00000000,0.00000000,0.0000000 {E-lon(deg),Lat(deg),Alt(km)}
Center cylindric: 0.00000000,0.00000000,0.0000000 {E-lon(deg),Dxy(km),Dz(km)}
Center radii    : (undefined)                                                  
Output units    : AU-D
Output type     : GEOMETRIC cartesian states
Output format   : 3 (position, velocity, LT, range, range-rate)
Reference frame : Ecliptic of J2000.0
*******************************************************************************
JDTDB
   X     Y     Z
   VX    VY    VZ
   LT    RG    RR
*******************************************************************************
$$SOE
2463660.500000000 = A.D. 2033-Mar-04 00:00:00.0000 TDB 
 X = 3.725927842018306E+00 Y =-3.593466349193289E+00 Z =-7.137553703334229E-02
 VX= 3.920351739531337E-03 VY= 5.114449754080673E-03 VZ=-9.715711030972511E-04
 LT= 2.989947025259074E-02 RG= 5.176932794039201E+00 RR=-7.151549241893451E-04
2463670.500000000 = A.D. 2033-Mar-14 00:00:00.0000 TDB 
 X = 3.764291042534006E+00 Y =-3.541126106742229E+00 Z =-8.103277588561122E-02
 VX= 3.755326573436312E-03 VY= 5.354741609050785E-03 VZ=-9.577906961047119E-04
 LT= 2.985223881602522E-02 RG= 5.168754924304388E+00 RR=-9.186082054971123E-04
2463680.500000000 = A.D. 2033-Mar-24 00:00:00.0000 TDB 
 X = 3.801096954686326E+00 Y =-3.486354925463018E+00 Z =-9.049073975699203E-02
 VX= 3.609049185658365E-03 VY= 5.600011517580379E-03 VZ=-9.318399956710993E-04
 LT= 2.979361312561846E-02 RG= 5.158604200673635E+00 RR=-1.109012972299040E-03
2463690.500000000 = A.D. 2033-Apr-03 00:00:00.0000 TDB 
 X = 3.836536403823692E+00 Y =-3.429121654568750E+00 Z =-9.963204674209584E-02
 VX= 3.482060390320111E-03 VY= 5.846556188257116E-03 VZ=-8.946402058895412E-04
 LT= 2.972446325350047E-02 RG= 5.146631271466294E+00 RR=-1.282463382176348E-03
2463700.500000000 = A.D. 2033-Apr-13 00:00:00.0000 TDB 
 X = 3.870801892359268E+00 Y =-3.369431150125029E+00 Z =-1.083500583779984E-01
 VX= 3.374170023669961E-03 VY= 6.090909969840717E-03 VZ=-8.474005970554021E-04
 LT= 2.964586178353328E-02 RG= 5.133021848821168E+00 RR=-1.435868068583607E-03
2463710.500000000 = A.D. 2033-Apr-23 00:00:00.0000 TDB 
 X = 3.904080840223029E+00 Y =-3.307321036010438E+00 Z =-1.165512035953226E-01
 VX= 3.284575112255065E-03 VY= 6.330005994980054E-03 VZ=-7.915068062008128E-04
 LT= 2.955903501333693E-02 RG= 5.117988259589233E+00 RR=-1.566995417642553E-03
2463720.500000000 = A.D. 2033-May-03 00:00:00.0000 TDB 
 X = 3.936550199354391E+00 Y =-3.242857208054628E+00 Z =-1.241562061091717E-01
 VX= 3.212011535452435E-03 VY= 6.561265926677403E-03 VZ=-7.284159294490812E-04
 LT= 2.946531406844923E-02 RG= 5.101760981012770E+00 RR=-1.674434872115364E-03
2463730.500000000 = A.D. 2033-May-13 00:00:00.0000 TDB 
 X = 3.968372631069655E+00 Y =-3.176128777872563E+00 Z =-1.311003494712556E-01
 VX= 3.154910610962229E-03 VY= 6.782624131569016E-03 VZ=-6.595705734818044E-04
 LT= 2.936609003980299E-02 RG= 5.084580873020356E+00 RR=-1.757501171136412E-03
2463740.500000000 = A.D. 2033-May-23 00:00:00.0000 TDB 
 X = 3.999694182890821E+00 Y =-3.107243043530928E+00 Z =-1.373330055435103E-01
 VX= 3.111539507315336E-03 VY= 6.992501287006068E-03 VZ=-5.863377433136564E-04
 LT= 2.926277561474063E-02 RG= 5.066692534842985E+00 RR=-1.816110001910515E-03
2463750.500000000 = A.D. 2033-Jun-02 00:00:00.0000 TDB 
 X = 4.030643234718394E+00 Y =-3.036320899284723E+00 Z =-1.428166771249427E-01
 VX= 3.080113533626959E-03 VY= 7.189746118142661E-03 VZ=-5.099724444146772E-04
 LT= 2.915677411367702E-02 RG= 5.048338943878407E+00 RR=-1.850649323770552E-03
2463760.500000000 = A.D. 2033-Jun-12 00:00:00.0000 TDB 
 X = 4.061330407336660E+00 Y =-2.963492913434953E+00 Z =-1.475257849121361E-01
 VX= 3.058876374449815E-03 VY= 7.373562580839872E-03 VZ=-4.316020545822901E-04
 LT= 2.904945565294389E-02 RG= 5.029757328415606E+00 RR=-1.861863262959712E-03
2463770.500000000 = A.D. 2033-Jun-22 00:00:00.0000 TDB 
 X = 4.091849121620292E+00 Y =-2.888896148237425E+00 Z =-1.514453794870080E-01
 VX= 3.046150587544115E-03 VY= 7.543436004406087E-03 VZ=-3.522260768931299E-04
 LT= 2.894213942021118E-02 RG= 5.011176098719117E+00 RR=-1.850757470313015E-03
2463780.500000000 = A.D. 2033-Jul-02 00:00:00.0000 TDB 
 X = 4.122276536555693E+00 Y =-2.812671686708620E+00 Z =-1.545699026598552E-01
 VX= 3.040363905073256E-03 VY= 7.699066728103179E-03 VZ=-2.727254316029328E-04
 LT= 2.883608072977810E-02 RG= 4.992812605722168E+00 RR=-1.818528309658609E-03
2463790.500000000 = A.D. 2033-Jul-12 00:00:00.0000 TDB 
 X = 4.152674655455932E+00 Y =-2.734962766262827E+00 Z =-1.569020712729801E-01
 VX= 3.040057681550003E-03 VY= 7.840315579498677E-03 VZ=-1.938767873899291E-04
 LT= 2.873246151308102E-02 RG= 4.974871494509161E+00 RR=-1.766514178420255E-03
2463800.500000000 = A.D. 2033-Jul-22 00:00:00.0000 TDB 
 X = 4.183091452891402E+00 Y =-2.655913390843163E+00 Z =-1.584519140639614E-01
 VX= 3.043883605755221E-03 VY= 7.967162693681433E-03 VZ=-1.163684204285529E-04
 LT= 2.863238307049432E-02 RG= 4.957543449328877E+00 RR=-1.696165021514539E-03
2463810.500000000 = A.D. 2033-Aug-01 00:00:00.0000 TDB 
 X = 4.213561932335918E+00 Y =-2.575667289397977E+00 Z =-1.592359625836069E-01
 VX= 3.050593871594480E-03 VY= 8.079679165252783E-03 VZ=-4.081489652708611E-05
 LT= 2.853686017539633E-02 RG= 4.941004172745156E+00 RR=-1.609025139246326E-03
2463820.500000000 = A.D. 2033-Aug-11 00:00:00.0000 TDB 
 X = 4.244109071534123E+00 Y =-2.494367100989218E+00 Z =-1.592765772477170E-01
 VX= 3.059029064398453E-03 VY= 8.178009758891606E-03 VZ= 3.223081577623380E-05
 LT= 2.844681591674041E-02 RG= 4.925413492655752E+00 RR=-1.506724078482440E-03
2463830.500000000 = A.D. 2033-Aug-21 00:00:00.0000 TDB 
 X = 4.274744647593439E+00 Y =-2.412153688336450E+00 Z =-1.586013780734223E-01
 VX= 3.068106704654685E-03 VY= 8.262364138657902E-03 VZ= 1.022685624360190E-04
 LT= 2.836307694767200E-02 RG= 4.910914539615883E+00 RR=-1.390970927574837E-03
2463840.500000000 = A.D. 2033-Aug-31 00:00:00.0000 TDB 
 X = 4.305469958474616E+00 Y =-2.329165506503688E+00 Z =-1.572427463862941E-01
 VX= 3.076812248836779E-03 VY= 8.333014094330951E-03 VZ= 1.688456527618178E-04
 LT= 2.828636905341010E-02 RG= 4.897632979440690E+00 RR=-1.263548344399138E-03
2463850.500000000 = A.D. 2033-Sep-10 00:00:00.0000 TDB 
 X = 4.336276472201132E+00 Y =-2.245537979483831E+00 Z =-1.552373638770374E-01
 VX= 3.084193699005249E-03 VY= 8.390294318101623E-03 VZ= 2.315545915781183E-04
 LT= 2.821731314526584E-02 RG= 4.885676319591068E+00 RR=-1.126303410637719E-03
2463860.500000000 = A.D. 2033-Sep-20 00:00:00.0000 TDB 
 X = 4.367146442116763E+00 Y =-2.161402861599373E+00 Z =-1.526257601076903E-01
 VX= 3.089360181567138E-03 VY= 8.434604332399495E-03 VZ= 2.900334873068810E-04
 LT= 2.815642192414105E-02 RG= 4.875133331476332E+00 RR=-9.811334114152401E-04
2463870.500000000 = A.D. 2033-Sep-30 00:00:00.0000 TDB 
 X = 4.398053526593698E+00 Y =-2.076887582658074E+00 Z =-1.494518471564136E-01
 VX= 3.091484183159424E-03 VY= 8.466409552443733E-03 VZ= 3.439681776942101E-04
 LT= 2.810409753278899E-02 RG= 4.866073643955775E+00 RR=-8.299657855673995E-04
2463880.500000000 = A.D. 2033-Oct-10 00:00:00.0000 TDB 
 X = 4.428963445261412E+00 Y =-1.992114593257484E+00 Z =-1.457624284996990E-01
 VX= 3.089806490278459E-03 VY= 8.486239962653037E-03 VZ= 3.930950480315074E-04
 LT= 2.806063052363236E-02 RG= 4.858547564621900E+00 RR=-6.747327093829938E-04
2463890.500000000 = A.D. 2033-Oct-20 00:00:00.0000 TDB 
 X = 4.459834693639453E+00 Y =-1.907200738521384E+00 Z =-1.416066795050993E-01
 VX= 3.083642656180946E-03 VY= 8.494685605465076E-03 VZ= 4.372037326858430E-04
 LT= 2.802620041899607E-02 RG= 4.852586176801715E+00 RR=-5.173416889084797E-04
2463900.500000000 = A.D. 2033-Oct-30 00:00:00.0000 TDB 
 X = 4.490619324860329E+00 Y =-1.822256694620169E+00 Z =-1.370356055041171E-01
 VX= 3.072389697224478E-03 VY= 8.492388581981156E-03 VZ= 4.761387679366927E-04
 LT= 2.800087804015577E-02 RG= 4.848201742818974E+00 RR=-3.596441435061632E-04
2463910.500000000 = A.D. 2033-Nov-09 00:00:00.0000 TDB 
 X = 4.521263793809173E+00 Y =-1.737386502535542E+00 Z =-1.321014906117223E-01
 VX= 3.055531674481682E-03 VY= 8.480031735614428E-03 VZ= 5.097996705437218E-04
 LT= 2.798462965191251E-02 RG= 4.845388421605046E+00 RR=-2.034043834042351E-04
